QIANFAN-49              
1 62250U 24232P   26202.25226596  .00000035  00000+0  35582-4 0  9991
2 62250  89.0078  19.0820 0012130 279.2152  80.7627 13.51014344 97613
QIANFAN-50              
1 62251U 24232Q   26202.20300018  .00000046  00000+0  52743-4 0  9999
2 62251  89.0084  19.1071 0013789 280.8376  79.1223 13.51023048 97634
QIANFAN-51              
1 62252U 24232R   26202.26061610  .00000035  00000+0  35485-4 0  9990
2 62252  89.0078  19.0817 0011289 285.5226  74.4678 13.51022383 97637
QIANFAN-52              
1 62253U 24232S   26202.21524771  .00000048  00000+0  55332-4 0  9995
2 62253  89.0074  18.9512 0013275 276.0917  83.8721 13.51014143 97710
QIANFAN-53              
1 62254U 24232T   26202.19475397  .00000033  00000+0  32086-4 0  9997
2 62254  89.0081  19.0745 0012160 277.5376  82.4393 13.51010041 97674
QIANFAN-54              
1 62255U 24232U   26202.23583771  .00000021  00000+0  13981-4 0  9999
2 62255  89.0072  18.7293 0001702  23.8988 336.2242 13.51013800129181
QIANFAN-55              
1 62785U 25016A   26202.18795199  .00000071  00000+0  90586-4 0  9992
2 62785  88.9710  80.3498 0019383  72.2103 288.1161 13.51011927 76958
QIANFAN-56              
1 62786U 25016B   26202.20441933  .00000082  00000+0  10866-3 0  9994
2 62786  88.9683  80.1256 0018029  74.3606 285.9533 13.51022761 77008
QIANFAN-57              
1 62787U 25016C   26202.23729929  .00000072  00000+0  93058-4 0  9996
2 62787  88.9714  80.3444 0001369  91.0569 269.0739 13.51010507 76979
QIANFAN-58              
1 62788U 25016D   26202.13429701  .00000076  00000+0  98984-4 0  9998
2 62788  88.9684  80.1195 0015899  67.9884 292.2954 13.51015004 77001
QIANFAN-59              
1 62789U 25016E   26202.23306056  .00000077  00000+0  10069-3 0  9995
2 62789  88.9708  80.2349 0016294  71.0646 289.2269 13.51019287 77016
QIANFAN-60              
1 62790U 25016F   26202.19206685  .00000071  00000+0  90805-4 0  9990
2 62790  88.9689  80.1687 0017819  67.8819 292.4222 13.51022185 76991
QIANFAN-61              
1 62791U 25016G   26202.22501312  .00000042  00000+0  45468-4 0  9993
2 62791  88.9756  80.4776 0016781  67.5348 292.7579 13.51022084 77010
QIANFAN-62              
1 62792U 25016H   26202.22891561  .00000075  00000+0  96715-4 0  9999
2 62792  88.9702  80.2270 0018122  67.5668 292.7401 13.51014707 77001
QIANFAN-63              
1 62793U 25016J   26202.25367733  .00000080  00000+0  10476-3 0  9997
2 62793  88.9709  80.1908 0018214  72.2113 288.1024 13.51017951 77044
QIANFAN-64              
1 62794U 25016K   26202.22082837  .00000078  00000+0  10120-3 0  9997
2 62794  88.9696  80.1388 0016099  66.2655 294.0183 13.51014416 77039
