{"fetched_at":"2026-07-21T17:53:08.726Z","source":"https://celestrak.org/NORAD/elements/gp.php?GROUP=qianfan&FORMAT=JSON","constellation":"qianfan","records":[{"OBJECT_NAME":"QIANFAN-49","OBJECT_ID":"2024-232P","EPOCH":"2026-07-21T06:03:15.778944","CLASSIFICATION_TYPE":"U","MEAN_MOTION":13.51014344,"ECCENTRICITY":0.00121307,"INCLINATION":89.0078,"RA_OF_ASC_NODE":19.082,"ARG_OF_PERICENTER":279.2152,"MEAN_ANOMALY":80.7627,"EPHEMERIS_TYPE":0,"NORAD_CAT_ID":62250,"ELEMENT_SET_NO":999,"REV_AT_EPOCH":9761,"BSTAR":0.00003558225,"MEAN_MOTION_DOT":3.5e-7,"MEAN_MOTION_DDOT":0},{"OBJECT_NAME":"QIANFAN-50","OBJECT_ID":"2024-232Q","EPOCH":"2026-07-21T04:52:19.215552","CLASSIFICATION_TYPE":"U","MEAN_MOTION":13.51023048,"ECCENTRICITY":0.00137891,"INCLINATION":89.0084,"RA_OF_ASC_NODE":19.1071,"ARG_OF_PERICENTER":280.8376,"MEAN_ANOMALY":79.1223,"EPHEMERIS_TYPE":0,"NORAD_CAT_ID":62251,"ELEMENT_SET_NO":999,"REV_AT_EPOCH":9763,"BSTAR":0.000052742541,"MEAN_MOTION_DOT":4.6e-7,"MEAN_MOTION_DDOT":0},{"OBJECT_NAME":"QIANFAN-51","OBJECT_ID":"2024-232R","EPOCH":"2026-07-21T06:15:17.231040","CLASSIFICATION_TYPE":"U","MEAN_MOTION":13.51022383,"ECCENTRICITY":0.00112894,"INCLINATION":89.0078,"RA_OF_ASC_NODE":19.0817,"ARG_OF_PERICENTER":285.5226,"MEAN_ANOMALY":74.4678,"EPHEMERIS_TYPE":0,"NORAD_CAT_ID":62252,"ELEMENT_SET_NO":999,"REV_AT_EPOCH":9763,"BSTAR":0.000035484552,"MEAN_MOTION_DOT":3.5e-7,"MEAN_MOTION_DDOT":0},{"OBJECT_NAME":"QIANFAN-52","OBJECT_ID":"2024-232S","EPOCH":"2026-07-21T05:09:57.402144","CLASSIFICATION_TYPE":"U","MEAN_MOTION":13.51014143,"ECCENTRICITY":0.00132756,"INCLINATION":89.0074,"RA_OF_ASC_NODE":18.9512,"ARG_OF_PERICENTER":276.0917,"MEAN_ANOMALY":83.8721,"EPHEMERIS_TYPE":0,"NORAD_CAT_ID":62253,"ELEMENT_SET_NO":999,"REV_AT_EPOCH":9771,"BSTAR":0.000055332434,"MEAN_MOTION_DOT":4.8e-7,"MEAN_MOTION_DDOT":0},{"OBJECT_NAME":"QIANFAN-53","OBJECT_ID":"2024-232T","EPOCH":"2026-07-21T04:40:26.743008","CLASSIFICATION_TYPE":"U","MEAN_MOTION":13.51010041,"ECCENTRICITY":0.00121607,"INCLINATION":89.0081,"RA_OF_ASC_NODE":19.0745,"ARG_OF_PERICENTER":277.5376,"MEAN_ANOMALY":82.4393,"EPHEMERIS_TYPE":0,"NORAD_CAT_ID":62254,"ELEMENT_SET_NO":999,"REV_AT_EPOCH":9767,"BSTAR":0.000032085962,"MEAN_MOTION_DOT":3.3e-7,"MEAN_MOTION_DDOT":0},{"OBJECT_NAME":"QIANFAN-54","OBJECT_ID":"2024-232U","EPOCH":"2026-07-21T05:39:36.378144","CLASSIFICATION_TYPE":"U","MEAN_MOTION":13.510138,"ECCENTRICITY":0.00017026,"INCLINATION":89.0072,"RA_OF_ASC_NODE":18.7293,"ARG_OF_PERICENTER":23.8988,"MEAN_ANOMALY":336.2242,"EPHEMERIS_TYPE":0,"NORAD_CAT_ID":62255,"ELEMENT_SET_NO":999,"REV_AT_EPOCH":12918,"BSTAR":0.000013980569,"MEAN_MOTION_DOT":2.1e-7,"MEAN_MOTION_DDOT":0},{"OBJECT_NAME":"QIANFAN-55","OBJECT_ID":"2025-016A","EPOCH":"2026-07-21T04:30:39.051936","CLASSIFICATION_TYPE":"U","MEAN_MOTION":13.51011927,"ECCENTRICITY":0.00193837,"INCLINATION":88.971,"RA_OF_ASC_NODE":80.3498,"ARG_OF_PERICENTER":72.2103,"MEAN_ANOMALY":288.1161,"EPHEMERIS_TYPE":0,"NORAD_CAT_ID":62785,"ELEMENT_SET_NO":999,"REV_AT_EPOCH":7695,"BSTAR":0.000090585678,"MEAN_MOTION_DOT":7.1e-7,"MEAN_MOTION_DDOT":0},{"OBJECT_NAME":"QIANFAN-56","OBJECT_ID":"2025-016B","EPOCH":"2026-07-21T04:54:21.830112","CLASSIFICATION_TYPE":"U","MEAN_MOTION":13.51022761,"ECCENTRICITY":0.00180291,"INCLINATION":88.9683,"RA_OF_ASC_NODE":80.1256,"ARG_OF_PERICENTER":74.3606,"MEAN_ANOMALY":285.9533,"EPHEMERIS_TYPE":0,"NORAD_CAT_ID":62786,"ELEMENT_SET_NO":999,"REV_AT_EPOCH":7700,"BSTAR":0.00010865793,"MEAN_MOTION_DOT":8.2e-7,"MEAN_MOTION_DDOT":0},{"OBJECT_NAME":"QIANFAN-57","OBJECT_ID":"2025-016C","EPOCH":"2026-07-21T05:41:42.658656","CLASSIFICATION_TYPE":"U","MEAN_MOTION":13.51010507,"ECCENTRICITY":0.00013698,"INCLINATION":88.9714,"RA_OF_ASC_NODE":80.3444,"ARG_OF_PERICENTER":91.0569,"MEAN_ANOMALY":269.0739,"EPHEMERIS_TYPE":0,"NORAD_CAT_ID":62787,"ELEMENT_SET_NO":999,"REV_AT_EPOCH":7697,"BSTAR":0.00009305835,"MEAN_MOTION_DOT":7.2e-7,"MEAN_MOTION_DDOT":0},{"OBJECT_NAME":"QIANFAN-58","OBJECT_ID":"2025-016D","EPOCH":"2026-07-21T03:13:23.261664","CLASSIFICATION_TYPE":"U","MEAN_MOTION":13.51015004,"ECCENTRICITY":0.00158993,"INCLINATION":88.9684,"RA_OF_ASC_NODE":80.1195,"ARG_OF_PERICENTER":67.9884,"MEAN_ANOMALY":292.2954,"EPHEMERIS_TYPE":0,"NORAD_CAT_ID":62788,"ELEMENT_SET_NO":999,"REV_AT_EPOCH":7700,"BSTAR":0.000098983855,"MEAN_MOTION_DOT":7.6e-7,"MEAN_MOTION_DDOT":0},{"OBJECT_NAME":"QIANFAN-59","OBJECT_ID":"2025-016E","EPOCH":"2026-07-21T05:35:36.432384","CLASSIFICATION_TYPE":"U","MEAN_MOTION":13.51019287,"ECCENTRICITY":0.00162946,"INCLINATION":88.9708,"RA_OF_ASC_NODE":80.2349,"ARG_OF_PERICENTER":71.0646,"MEAN_ANOMALY":289.2269,"EPHEMERIS_TYPE":0,"NORAD_CAT_ID":62789,"ELEMENT_SET_NO":999,"REV_AT_EPOCH":7701,"BSTAR":0.00010068954,"MEAN_MOTION_DOT":7.7e-7,"MEAN_MOTION_DDOT":0},{"OBJECT_NAME":"QIANFAN-60","OBJECT_ID":"2025-016F","EPOCH":"2026-07-21T04:36:34.575840","CLASSIFICATION_TYPE":"U","MEAN_MOTION":13.51022185,"ECCENTRICITY":0.00178191,"INCLINATION":88.9689,"RA_OF_ASC_NODE":80.1687,"ARG_OF_PERICENTER":67.8819,"MEAN_ANOMALY":292.4222,"EPHEMERIS_TYPE":0,"NORAD_CAT_ID":62790,"ELEMENT_SET_NO":999,"REV_AT_EPOCH":7699,"BSTAR":0.000090805066,"MEAN_MOTION_DOT":7.1e-7,"MEAN_MOTION_DDOT":0},{"OBJECT_NAME":"QIANFAN-61","OBJECT_ID":"2025-016G","EPOCH":"2026-07-21T05:24:01.133568","CLASSIFICATION_TYPE":"U","MEAN_MOTION":13.51022084,"ECCENTRICITY":0.00167819,"INCLINATION":88.9756,"RA_OF_ASC_NODE":80.4776,"ARG_OF_PERICENTER":67.5348,"MEAN_ANOMALY":292.7579,"EPHEMERIS_TYPE":0,"NORAD_CAT_ID":62791,"ELEMENT_SET_NO":999,"REV_AT_EPOCH":7701,"BSTAR":0.000045467779,"MEAN_MOTION_DOT":4.2e-7,"MEAN_MOTION_DDOT":0},{"OBJECT_NAME":"QIANFAN-62","OBJECT_ID":"2025-016H","EPOCH":"2026-07-21T05:29:38.308704","CLASSIFICATION_TYPE":"U","MEAN_MOTION":13.51014707,"ECCENTRICITY":0.00181228,"INCLINATION":88.9702,"RA_OF_ASC_NODE":80.227,"ARG_OF_PERICENTER":67.5668,"MEAN_ANOMALY":292.7401,"EPHEMERIS_TYPE":0,"NORAD_CAT_ID":62792,"ELEMENT_SET_NO":999,"REV_AT_EPOCH":7700,"BSTAR":0.000096715184,"MEAN_MOTION_DOT":7.5e-7,"MEAN_MOTION_DDOT":0},{"OBJECT_NAME":"QIANFAN-63","OBJECT_ID":"2025-016J","EPOCH":"2026-07-21T06:05:17.721312","CLASSIFICATION_TYPE":"U","MEAN_MOTION":13.51017951,"ECCENTRICITY":0.00182147,"INCLINATION":88.9709,"RA_OF_ASC_NODE":80.1908,"ARG_OF_PERICENTER":72.2113,"MEAN_ANOMALY":288.1024,"EPHEMERIS_TYPE":0,"NORAD_CAT_ID":62793,"ELEMENT_SET_NO":999,"REV_AT_EPOCH":7704,"BSTAR":0.00010476435,"MEAN_MOTION_DOT":8e-7,"MEAN_MOTION_DDOT":0},{"OBJECT_NAME":"QIANFAN-64","OBJECT_ID":"2025-016K","EPOCH":"2026-07-21T05:17:59.571168","CLASSIFICATION_TYPE":"U","MEAN_MOTION":13.51014416,"ECCENTRICITY":0.00160996,"INCLINATION":88.9696,"RA_OF_ASC_NODE":80.1388,"ARG_OF_PERICENTER":66.2655,"MEAN_ANOMALY":294.0183,"EPHEMERIS_TYPE":0,"NORAD_CAT_ID":62794,"ELEMENT_SET_NO":999,"REV_AT_EPOCH":7703,"BSTAR":0.00010119794,"MEAN_MOTION_DOT":7.8e-7,"MEAN_MOTION_DDOT":0}]}
